CCSDS_OMM_VERS = 2.0
CREATION_DATE  = 
ORIGINATOR     = 

OBJECT_NAME    = IDEFIX & ARIANE 42P R/B
OBJECT_ID      = 2002-021B
CENTER_NAME    = EARTH
REF_FRAME      = TEME
TIME_SYSTEM    = UTC
MEAN_ELEMENT_THEORY = SGP/SGP4

EPOCH          = 2026-03-01T07:33:53.940096
MEAN_MOTION    = 14.31019181
ECCENTRICITY   = .00111007
INCLINATION    = 98.5861
RA_OF_ASC_NODE = 359.0220
ARG_OF_PERICENTER = 207.7162
MEAN_ANOMALY   = 152.3430

EPHEMERIS_TYPE = 0
CLASSIFICATION_TYPE = U
NORAD_CAT_ID   = 27422
ELEMENT_SET_NO = 999
REV_AT_EPOCH   = 24282
BSTAR          = .13977269E-3
MEAN_MOTION_DOT = .324E-5
MEAN_MOTION_DDOT = 0

CCSDS_OMM_VERS = 2.0
CREATION_DATE  = 
ORIGINATOR     = 

OBJECT_NAME    = AQUA
OBJECT_ID      = 2002-022A
CENTER_NAME    = EARTH
REF_FRAME      = TEME
TIME_SYSTEM    = UTC
MEAN_ELEMENT_THEORY = SGP/SGP4

EPOCH          = 2026-03-01T06:35:08.650752
MEAN_MOTION    = 14.61952590
ECCENTRICITY   = .00007315
INCLINATION    = 98.4159
RA_OF_ASC_NODE = 27.4871
ARG_OF_PERICENTER = 52.3827
MEAN_ANOMALY   = 51.6310

EPHEMERIS_TYPE = 0
CLASSIFICATION_TYPE = U
NORAD_CAT_ID   = 27424
ELEMENT_SET_NO = 999
REV_AT_EPOCH   = 26750
BSTAR          = .25674033E-3
MEAN_MOTION_DOT = .1237E-4
MEAN_MOTION_DDOT = 0

CCSDS_OMM_VERS = 2.0
CREATION_DATE  = 
ORIGINATOR     = 

OBJECT_NAME    = CZ-4B R/B
OBJECT_ID      = 2002-024C
CENTER_NAME    = EARTH
REF_FRAME      = TEME
TIME_SYSTEM    = UTC
MEAN_ELEMENT_THEORY = SGP/SGP4

EPOCH          = 2026-03-01T03:51:46.981152
MEAN_MOTION    = 14.14545846
ECCENTRICITY   = .00508539
INCLINATION    = 98.8859
RA_OF_ASC_NODE = 113.6099
ARG_OF_PERICENTER = 48.1732
MEAN_ANOMALY   = 16.6442

EPHEMERIS_TYPE = 0
CLASSIFICATION_TYPE = U
NORAD_CAT_ID   = 27432
ELEMENT_SET_NO = 999
REV_AT_EPOCH   = 22803
BSTAR          = .42748276E-4
MEAN_MOTION_DOT = .39E-6
MEAN_MOTION_DDOT = 0

CCSDS_OMM_VERS = 2.0
CREATION_DATE  = 
ORIGINATOR     = 

OBJECT_NAME    = MIDORI II (ADEOS-II)
OBJECT_ID      = 2002-056A
CENTER_NAME    = EARTH
REF_FRAME      = TEME
TIME_SYSTEM    = UTC
MEAN_ELEMENT_THEORY = SGP/SGP4

EPOCH          = 2026-02-28T20:14:01.563360
MEAN_MOTION    = 14.29276912
ECCENTRICITY   = .00018871
INCLINATION    = 98.7752
RA_OF_ASC_NODE = 18.2605
ARG_OF_PERICENTER = 55.6507
MEAN_ANOMALY   = 304.4852

EPHEMERIS_TYPE = 0
CLASSIFICATION_TYPE = U
NORAD_CAT_ID   = 27597
ELEMENT_SET_NO = 999
REV_AT_EPOCH   = 20903
BSTAR          = .13650049E-3
MEAN_MOTION_DOT = .302E-5
MEAN_MOTION_DDOT = 0

CCSDS_OMM_VERS = 2.0
CREATION_DATE  = 
ORIGINATOR     = 

OBJECT_NAME    = H-2A R/B
OBJECT_ID      = 2002-056E
CENTER_NAME    = EARTH
REF_FRAME      = TEME
TIME_SYSTEM    = UTC
MEAN_ELEMENT_THEORY = SGP/SGP4

EPOCH          = 2026-02-28T21:58:20.703360
MEAN_MOTION    = 14.33753840
ECCENTRICITY   = .0069949
INCLINATION    = 98.3185
RA_OF_ASC_NODE = 20.6160
ARG_OF_PERICENTER = 186.7937
MEAN_ANOMALY   = 241.3463

EPHEMERIS_TYPE = 0
CLASSIFICATION_TYPE = U
NORAD_CAT_ID   = 27601
ELEMENT_SET_NO = 999
REV_AT_EPOCH   = 21285
BSTAR          = .1168E-3
MEAN_MOTION_DOT = .292E-5
MEAN_MOTION_DDOT = 0

CCSDS_OMM_VERS = 2.0
CREATION_DATE  = 
ORIGINATOR     = 

OBJECT_NAME    = CZ-4B R/B
OBJECT_ID      = 2003-049C
CENTER_NAME    = EARTH
REF_FRAME      = TEME
TIME_SYSTEM    = UTC
MEAN_ELEMENT_THEORY = SGP/SGP4

EPOCH          = 2026-02-28T23:51:06.182784
MEAN_MOTION    = 14.55009988
ECCENTRICITY   = .00470001
INCLINATION    = 98.6870
RA_OF_ASC_NODE = 54.5580
ARG_OF_PERICENTER = 258.0298
MEAN_ANOMALY   = 101.5627

EPHEMERIS_TYPE = 0
CLASSIFICATION_TYPE = U
NORAD_CAT_ID   = 28059
ELEMENT_SET_NO = 999
REV_AT_EPOCH   = 18533
BSTAR          = .12132042E-3
MEAN_MOTION_DOT = .478E-5
MEAN_MOTION_DDOT = 0

CCSDS_OMM_VERS = 2.0
CREATION_DATE  = 
ORIGINATOR     = 

OBJECT_NAME    = CZ-2C R/B
OBJECT_ID      = 2004-012C
CENTER_NAME    = EARTH
REF_FRAME      = TEME
TIME_SYSTEM    = UTC
MEAN_ELEMENT_THEORY = SGP/SGP4

EPOCH          = 2026-03-01T03:55:06.943584
MEAN_MOTION    = 15.63383863
ECCENTRICITY   = .00135211
INCLINATION    = 97.7259
RA_OF_ASC_NODE = 124.6543
ARG_OF_PERICENTER = 344.3810
MEAN_ANOMALY   = 15.7028

EPHEMERIS_TYPE = 0
CLASSIFICATION_TYPE = U
NORAD_CAT_ID   = 28222
ELEMENT_SET_NO = 999
REV_AT_EPOCH   = 20294
BSTAR          = .61200123E-3
MEAN_MOTION_DOT = .56738E-3
MEAN_MOTION_DDOT = 0

CCSDS_OMM_VERS = 2.0
CREATION_DATE  = 
ORIGINATOR     = 

OBJECT_NAME    = SL-16 R/B
OBJECT_ID      = 2004-021B
CENTER_NAME    = EARTH
REF_FRAME      = TEME
TIME_SYSTEM    = UTC
MEAN_ELEMENT_THEORY = SGP/SGP4

EPOCH          = 2026-02-28T23:18:58.922784
MEAN_MOTION    = 14.14599755
ECCENTRICITY   = .0003579
INCLINATION    = 70.9991
RA_OF_ASC_NODE = 250.7893
ARG_OF_PERICENTER = 28.1552
MEAN_ANOMALY   = 331.9764

EPHEMERIS_TYPE = 0
CLASSIFICATION_TYPE = U
NORAD_CAT_ID   = 28353
ELEMENT_SET_NO = 999
REV_AT_EPOCH   = 12160
BSTAR          = .52731E-5
MEAN_MOTION_DOT = -.38E-6
MEAN_MOTION_DDOT = 0

CCSDS_OMM_VERS = 2.0
CREATION_DATE  = 
ORIGINATOR     = 

OBJECT_NAME    = CZ-4B R/B
OBJECT_ID      = 2004-035C
CENTER_NAME    = EARTH
REF_FRAME      = TEME
TIME_SYSTEM    = UTC
MEAN_ELEMENT_THEORY = SGP/SGP4

EPOCH          = 2026-03-01T01:46:43.121280
MEAN_MOTION    = 15.28878305
ECCENTRICITY   = .00320927
INCLINATION    = 97.3516
RA_OF_ASC_NODE = 94.4208
ARG_OF_PERICENTER = 2.6552
MEAN_ANOMALY   = 357.4853

EPHEMERIS_TYPE = 0
CLASSIFICATION_TYPE = U
NORAD_CAT_ID   = 28415
ELEMENT_SET_NO = 999
REV_AT_EPOCH   = 17859
BSTAR          = .31692948E-3
MEAN_MOTION_DOT = .8955E-4
MEAN_MOTION_DDOT = 0

CCSDS_OMM_VERS = 2.0
CREATION_DATE  = 
ORIGINATOR     = 

OBJECT_NAME    = CZ-2C R/B
OBJECT_ID      = 2004-046B
CENTER_NAME    = EARTH
REF_FRAME      = TEME
TIME_SYSTEM    = UTC
MEAN_ELEMENT_THEORY = SGP/SGP4

EPOCH          = 2026-03-01T06:45:34.280928
MEAN_MOTION    = 14.26989031
ECCENTRICITY   = .01393851
INCLINATION    = 98.1988
RA_OF_ASC_NODE = 335.7884
ARG_OF_PERICENTER = 179.2553
MEAN_ANOMALY   = 180.8862

EPHEMERIS_TYPE = 0
CLASSIFICATION_TYPE = U
NORAD_CAT_ID   = 28480
ELEMENT_SET_NO = 999
REV_AT_EPOCH   = 10730
BSTAR          = .6954407E-4
MEAN_MOTION_DOT = .147E-5
MEAN_MOTION_DDOT = 0

CCSDS_OMM_VERS = 2.0
CREATION_DATE  = 
ORIGINATOR     = 

OBJECT_NAME    = ARIANE 5 R/B
OBJECT_ID      = 2004-049H
CENTER_NAME    = EARTH
REF_FRAME      = TEME
TIME_SYSTEM    = UTC
MEAN_ELEMENT_THEORY = SGP/SGP4

EPOCH          = 2026-03-01T01:50:40.066368
MEAN_MOTION    = 14.85246760
ECCENTRICITY   = .00845645
INCLINATION    = 98.2613
RA_OF_ASC_NODE = 228.2124
ARG_OF_PERICENTER = 19.8258
MEAN_ANOMALY   = 340.6209

EPHEMERIS_TYPE = 0
CLASSIFICATION_TYPE = U
NORAD_CAT_ID   = 28499
ELEMENT_SET_NO = 999
REV_AT_EPOCH   = 14451
BSTAR          = .10171384E-3
MEAN_MOTION_DOT = .865E-5
MEAN_MOTION_DDOT = 0

CCSDS_OMM_VERS = 2.0
CREATION_DATE  = 
ORIGINATOR     = 

OBJECT_NAME    = CZ-2D R/B
OBJECT_ID      = 2005-024B
CENTER_NAME    = EARTH
REF_FRAME      = TEME
TIME_SYSTEM    = UTC
MEAN_ELEMENT_THEORY = SGP/SGP4

EPOCH          = 2026-02-28T23:36:52.073856
MEAN_MOTION    = 15.59248972
ECCENTRICITY   = .0007048
INCLINATION    = 97.3604
RA_OF_ASC_NODE = 74.8167
ARG_OF_PERICENTER = 67.7327
MEAN_ANOMALY   = 292.4676

EPHEMERIS_TYPE = 0
CLASSIFICATION_TYPE = U
NORAD_CAT_ID   = 28738
ELEMENT_SET_NO = 999
REV_AT_EPOCH   = 13842
BSTAR          = .54815E-3
MEAN_MOTION_DOT = .43129E-3
MEAN_MOTION_DDOT = 0

