IDEFIX & ARIANE 42P R/B 
1 27422U 02021B   26060.31520764  .00000324  00000+0  13977-3 0  9992
2 27422  98.5861 359.0220 0011100 207.7162 152.3430 14.31019181242820
AQUA                    
1 27424U 02022A   26060.27440568  .00001237  00000+0  25674-3 0  9994
2 27424  98.4159  27.4871 0000731  52.3827  51.6310 14.61952590267502
CZ-4B R/B               
1 27432U 02024C   26060.16096043  .00000039  00000+0  42748-4 0  9999
2 27432  98.8859 113.6099 0050853  48.1732  16.6442 14.14545846228032
MIDORI II (ADEOS-II)    
1 27597U 02056A   26059.84307365  .00000302  00000+0  13650-3 0  9993
2 27597  98.7752  18.2605 0001887  55.6507 304.4852 14.29276912209037
H-2A R/B                
1 27601U 02056E   26059.91551740  .00000292  00000+0  11680-3 0  9994
2 27601  98.3185  20.6160 0069949 186.7937 241.3463 14.33753840212854
CZ-4B R/B               
1 28059U 03049C   26059.99382156  .00000478  00000+0  12132-3 0  9995
2 28059  98.6870  54.5580 0047000 258.0298 101.5627 14.55009988185337
CZ-2C R/B               
1 28222U 04012C   26060.16327481  .00056738  00000+0  61200-3 0  9999
2 28222  97.7259 124.6543 0013521 344.3810  15.7028 15.63383863202943
SL-16 R/B               
1 28353U 04021B   26059.97151531 -.00000038  00000+0  52731-5 0  9996
2 28353  70.9991 250.7893 0003579  28.1552 331.9764 14.14599755121602
CZ-4B R/B               
1 28415U 04035C   26060.07411020  .00008955  00000+0  31693-3 0  9992
2 28415  97.3516  94.4208 0032092   2.6552 357.4853 15.28878305178598
CZ-2C R/B               
1 28480U 04046B   26060.28164677  .00000147  00000+0  69544-4 0  9994
2 28480  98.1988 335.7884 0139385 179.2553 180.8862 14.26989031107303
ARIANE 5 R/B            
1 28499U 04049H   26060.07685262  .00000865  00000+0  10171-3 0  9990
2 28499  98.2613 228.2124 0084564  19.8258 340.6209 14.85246760144516
CZ-2D R/B               
1 28738U 05024B   26059.98393604  .00043129  00000+0  54815-3 0  9997
2 28738  97.3604  74.8167 0007048  67.7327 292.4676 15.59248972138429
